[{"OBJECT_NAME":"STARLINK-4217","OBJECT_ID":"2022-076P","EPOCH":"2026-03-09T11:25:23.217024","MEAN_MOTION":15.08829001,"ECCENTRICITY":0.00014981,"INCLINATION":53.2169,"RA_OF_ASC_NODE":95.0808,"ARG_OF_PERICENTER":90.6536,"MEAN_ANOMALY":269.4628,"EPHEMERIS_TYPE":0,"CLASSIFICATION_TYPE":"U","NORAD_CAT_ID":52999,"ELEMENT_SET_NO":999,"REV_AT_EPOCH":20281,"BSTAR":0.00014496224,"MEAN_MOTION_DOT":2.019e-5,"MEAN_MOTION_DDOT":0},{"OBJECT_NAME":"OBJECT Z","OBJECT_ID":"2017-042Z","EPOCH":"2026-03-09T21:17:53.130336","MEAN_MOTION":15.06776019,"ECCENTRICITY":0.00062541,"INCLINATION":97.3821,"RA_OF_ASC_NODE":235.9429,"ARG_OF_PERICENTER":50.1524,"MEAN_ANOMALY":310.0253,"EPHEMERIS_TYPE":0,"CLASSIFICATION_TYPE":"U","NORAD_CAT_ID":42848,"ELEMENT_SET_NO":999,"REV_AT_EPOCH":47228,"BSTAR":0.00039314781,"MEAN_MOTION_DOT":5.795e-5,"MEAN_MOTION_DDOT":0}]
